TDRS 3                  
1 19548U 88091B   16258.31130596 -.00000303  00000-0  00000+0 0  9999
2 19548  14.8393  11.0480 0034556 301.6893  90.8687  1.00269970 89643
SKYNET 4C               
1 20776U 90079A   16258.07410895 -.00000039  00000-0  00000+0 0  9995
2 20776  13.6846  18.9173 0003572 163.4842 196.5744  1.00273169 95218
TDRS 5                  
1 21639U 91054B   16257.57713193  .00000084  00000-0  00000-0 0  9999
2 21639  14.1777  24.3898 0020859 334.2812  34.4116  1.00267852 91988
TDRS 6                  
1 22314U 93003B   16257.56578772 -.00000294  00000-0  00000+0 0  9990
2 22314  13.6823  27.2724 0005088 251.3788 232.2016  1.00276256 86645
INTELSAT 701 (IS-701)   
1 22871U 93066A   16258.36911690 -.00000230  00000-0  00000+0 0  9996
2 22871   3.6703  68.4680 0003158 117.4473 271.2389  1.00271278 83637
NATO 4B                 
1 22921U 93076A   16258.16993373  .00000127  00000-0  00000+0 0  9993
2 22921  12.0658  25.7988 0002878 156.2445 265.3310  1.00268584 83376
INTELSAT 702 (IS-702)   
1 23124U 94034A   16256.11806528  .00000140  00000-0  00000-0 0  9998
2 23124   4.0116  66.6353 0000251 250.4611 109.8550  1.00273984 95615
OPTUS B3                
1 23227U 94055A   16256.75877037 -.00000090  00000-0  00000+0 0  9992
2 23227   6.9557  52.2226 0004350 144.5629 232.7621  1.00272188 80709
ASTRA 1D                
1 23331U 94070A   16257.43031591 -.00000295  00000-0  00000+0 0  9995
2 23331   7.1335  51.3407 0003286 122.6170 286.5234  1.00271822 80439
BRASILSAT B2            
1 23536U 95016A   16257.38802257 -.00000287  00000-0  00000+0 0  9993
2 23536   6.7542  53.1554 0002066 130.6923 240.6665  1.00271645 78589
AMSC 1                  
1 23553U 95019A   16256.42766961 -.00000120  00000-0  00000+0 0  9996
2 23553   9.7193  42.3877 0005233 152.8714 207.2599  1.00272820 78428
TDRS 7                  
1 23613U 95035B   16258.01542606 -.00000200  00000-0  00000+0 0  9995
2 23613  14.8512  18.0946 0018825  32.8265  32.7484  1.00268204 77427
ECHOSTAR 1              
1 23754U 95073A   16258.39878071 -.00000257  00000-0  00000+0 0  9994
2 23754   0.2305  91.8143 0003251  97.9388 230.3620  1.00273504 75723
INMARSAT 3-F1           
1 23839U 96020A   16257.91717154 -.00000005  00000-0  00000-0 0  9994
2 23839   3.4561  68.7725 0005417 115.7842 203.4471  1.00274008 74583
ASTRA 1F                
1 23842U 96021A   16258.02618749  .00000123  00000-0  00000+0 0  9991
2 23842   0.0793 303.0418 0004088 229.6444 234.4737  1.00272182 74600
MSAT M1                 
1 23846U 96022A   16257.46042975 -.00000091  00000-0  00000+0 0  9990
2 23846   7.3243  50.9150 0004745 133.4960 226.7078  1.00272363 74704
PALAPA C2               
1 23864U 96030A   16258.21302794 -.00000250  00000-0  00000+0 0  9998
2 23864   5.0545  60.7337 0000365  97.4448  58.2163  1.00272176 74451
INMARSAT 3-F2           
1 24307U 96053A   16258.12507505 -.00000138  00000-0  00000+0 0  9998
2 24307   2.0642  79.0703 0005135 105.3147 198.6891  1.00273001 73290
AMC-1 (GE-1)            
1 24315U 96054A   16257.37880898  .00000044  00000-0  00000+0 0  9998
2 24315   0.9895  86.4452 0002784  80.4205 193.1573  1.00272802 73299
AFRICASAT-2 (MEASAT-2)  
1 24653U 96063B   16257.89175490 -.00000235  00000-0  00000-0 0  9999
2 24653   7.0525  51.7726 0011108 162.0258 248.5410  1.00272934 72735
EUTELSAT 48A            
1 24665U 96067A   16258.02618749  .00000105  00000-0  00000+0 0  9995
2 24665   5.8914  56.9562 0004997 129.5894 224.6161  1.00274877 72953
INMARSAT 3-F3           
1 24674U 96070A   16258.39605054  .00000023  00000-0  00000+0 0  9993
2 24674   2.8883  73.0900 0005154 107.5578 133.8344  1.00271091 72243
AMC-2 (GE-2)            
1 24713U 97002A   16257.88339963 -.00000223  00000-0  00000-0 0  9993
2 24713   3.8184  67.3912 0004869 102.4308  56.6624  1.00272038 71859
INTELSAT 26 (IS-26)     
1 24732U 97007A   16257.91717154 -.00000005  00000-0  00000-0 0  9993
2 24732   7.0248  52.0705 0003004 142.5238 193.1796  1.00273530 37009
GALAXY 25 (G-25)        
1 24812U 97026A   16258.27628333 -.00000178  00000-0  00000+0 0  9993
2 24812   0.0156 172.5635 0003293   5.4930 181.9448  1.00270606 70631
ABS-3                   
1 24901U 97042A   16257.91501307 -.00000060  00000-0  00000-0 0  9992
2 24901   4.3786  64.8613 0005175 120.2540 204.6406  1.00419254 69818
INTELSAT 5 (IS-5)       
1 24916U 97046A   16257.78543296 -.00000153  00000-0  00000+0 0  9992
2 24916   3.0039  72.4540 0003312 111.9906 248.5097  1.00272131 69880
METEOSAT-7              
1 24932U 97049B   16256.97138803  .00000044  00000-0  00000+0 0  9995
2 24932  10.3142  39.7950 0001029 173.9739 186.1214  1.00266884 69684
AMC-3 (GE-3)            
1 24936U 97050A   16258.46016853 -.00000289  00000-0  00000+0 0  9999
2 24936   0.0460 288.0235 0002132 262.9420 261.5688  1.00271793 69727
NSS-5                   
1 24957U 97053A   16257.91924654  .00000096  00000-0  00000-0 0  9997
2 24957   3.3012  70.6803 0003594  99.2042 204.8906  1.00270174 69443
ECHOSTAR 3              
1 25004U 97059A   16257.41998889 -.00000297  00000-0  00000+0 0  9996
2 25004   1.5806  81.3988 0001902 130.6133 230.2293  1.00269675 69416
JCSAT-1B                
1 25067U 97075A   16258.20896197 -.00000217  00000-0  00000+0 0  9992
2 25067   5.0745  60.5503 0005990 158.9085 359.3841  1.00271890 68826
ASTRA 1G                
1 25071U 97076A   16257.91872046  .00000010  00000-0  00000-0 0  9993
2 25071   1.7570  79.2849 0003516  90.2435 217.3490  1.00271420 68821
BRASILSAT B3            
1 25152U 98006A   16257.47040873 -.00000184  00000-0  00000+0 0  9995
2 25152   3.4954  69.7970 0002646 114.3234 246.0981  1.00270442 68190
INMARSAT 3-F5           
1 25153U 98006B   16258.45715072 -.00000301  00000-0  00000+0 0  9996
2 25153   2.0244  74.4810 0005176  98.1470 291.8381  1.00273314 68166
NSS-806                 
1 25239U 98014A   16258.09181095 -.00000295  00000-0  00000+0 0  9994
2 25239   0.0732 324.6455 0004405 212.8616 161.5367  1.00269720 67923
CHINASAT 5A (ZX 5A)     
1 25354U 98033A   16258.50838135 -.00000099  00000-0  00000+0 0  9995
2 25354   0.6646  88.6687 0004587  64.3587 186.9287  1.00272282 71512
THOR III                
1 25358U 98035A   16257.21906929 -.00000053  00000-0  00000+0 0  9995
2 25358   4.9452  60.7669 0002013 106.7743 259.6729  1.00273116 66976
INTELSAT 805 (IS-805)   
1 25371U 98037A   16257.58891650 -.00000046  00000-0  00000+0 0  9998
2 25371   0.0468 289.8011 0003232 241.1002 203.1119  1.00272540 66838
ASTRA 2A                
1 25462U 98050A   16257.80188228 -.00000374  00000-0  00000+0 0  9993
2 25462   0.0255 173.0291 0002346   7.1936 215.1591  1.00268856 66010
AFRISTAR                
1 25515U 98063A   16258.16160015  .00000111  00000-0  00000+0 0  9998
2 25515   2.7637  70.4374 0004196 103.0999 259.1891  1.00272227 65404
INTELSAT 8 (IS-8)       
1 25522U 98065A   16257.58891650 -.00000046  00000-0  00000+0 0  9997
2 25522   0.4378  89.4020 0002962  74.5474 209.9724  1.00272914 65395
JCSAT-4A                
1 25630U 99006A   16258.03506319 -.00000171  00000-0  00000+0 0  9998
2 25630   1.7252  81.3785 0001690  77.3231 289.3216  1.00272721 64267
SKYNET 4E               
1 25639U 99009B   16258.08382669  .00000017  00000-0  00000+0 0  9993
2 25639   9.8722  30.7754 0002691 145.0853 213.7512  1.00272958 64291
ASIASAT 3S              
1 25657U 99013A   16257.75873330 -.00000213  00000-0  00000-0 0  9991
2 25657   1.9438  79.5505 0003053 108.8089 228.2852  1.00272859 64089
NIMIQ 1                 
1 25740U 99027A   16258.40626782 -.00000215  00000-0  00000+0 0  9990
2 25740   0.0876 277.6476 0003176 260.0168 235.8939  1.00269230 63483
ASTRA 1H                
1 25785U 99033A   16257.79424501  .00000067  00000-0  00000-0 0  9997
2 25785   3.2854  70.8430 0002952 101.7265 161.8906  1.00273247 15680
TELKOM 1                
1 25880U 99042A   16257.79085650 -.00000360  00000-0  00000-0 0  9998
2 25880   0.0149 186.8747 0001015  47.5368 151.5450  1.00271679 62653
ABS-7                   
1 25894U 99046A   16258.28223970 -.00000378  00000-0  00000+0 0  9999
2 25894   0.0350 247.3524 0001725 246.9110  77.1241  1.00269335 61416
ABS-6                   
1 25924U 99053A   16257.57775828 -.00000135  00000-0  00000-0 0  9998
2 25924   0.0160 241.8449 0002422 294.2375 183.9337  1.00271713 62144
TELSTAR 12 (ORION 2)    
1 25949U 99059A   16258.40591962 -.00000078  00000-0  00000+0 0  9994
2 25949   0.3532  89.3010 0002860  95.1845 206.2672  1.00272042 61801
AMC-4 (GE-4)            
1 25954U 99060A   16257.20665690 -.00000288  00000-0  00000+0 0  9992
2 25954   0.0126  94.1329 0002367  35.3260 230.5760  1.00271427 61757
GALAXY 11 (G-11)        
1 26038U 99071A   16257.92059293  .00000063  00000-0  00000-0 0  9994
2 26038   0.0096 292.6416 0000341  65.3292  24.8230  1.00172604  7895
HISPASAT 1C             
1 26071U 00007A   16257.30657137 -.00000227  00000-0  00000+0 0  9997
2 26071   0.0442  43.6286 0002741 138.5474 197.0794  1.00271074 60907
SUPERBIRD-B2            
1 26095U 00012A   16257.75857473 -.00000108  00000-0  00000-0 0  9992
2 26095   0.0279 227.2234 0001828 321.3912 239.6476  1.00272090  9450
ASIASTAR                
1 26107U 00016A   16258.46726331 -.00000347  00000-0  00000+0 0  9991
2 26107   1.1022  81.9272 0004501  96.1494  89.0067  1.00268785 60425
EUTELSAT 16C            
1 26243U 00019A   16258.08382669  .00000080  00000-0  00000+0 0  9998
2 26243   3.7426  67.6685 0002758 128.0043 202.5906  1.00276721 60050
EUTELSAT 36A            
1 26369U 00028A   16257.79031527 -.00000232  00000-0  00000-0 0  9999
2 26369   0.4395  81.9075 0004666 104.1469 180.2078  1.00271739 59703
TDRS 8                  
1 26388U 00034A   16257.93297736 -.00000239  00000-0  00000+0 0  9995
2 26388   7.0204  58.2630 0008226 155.7994 204.4285  1.00274600 59441
